{"fetched_at":"2026-03-29T02:12:04Z","count":15717,"tles":[{"name":"STARLINK-5927","line1":"1 55934U 23037W   26087.59793097 -.00199889  00000+0 -17920-1 0  9998","line2":"2 55934  69.9992 236.7309 0004849 115.9077 244.2582 14.96792590166818","category":"Starlink"}]}